{
    "links": {
        "self": "http://www.neowsapp.com/rest/v1/neo/3551405?api_key=iIulBulltgU6a56xZRHN4H3l9WmuAYTsLGpBGhQ2"
    },
    "id": "3551405",
    "neo_reference_id": "3551405",
    "name": "(2010 VD99)",
    "designation": "2010 VD99",
    "nasa_jpl_url": "http://ssd.jpl.nasa.gov/sbdb.cgi?sstr=3551405",
    "absolute_magnitude_h": 24.6,
    "estimated_diameter": {
        "kilometers": {
            "estimated_diameter_min": 0.0319561887,
            "estimated_diameter_max": 0.0714562102
        },
        "meters": {
            "estimated_diameter_min": 31.9561886721,
            "estimated_diameter_max": 71.4562101727
        },
        "miles": {
            "estimated_diameter_min": 0.0198566489,
            "estimated_diameter_max": 0.0444008168
        },
        "feet": {
            "estimated_diameter_min": 104.8431420431,
            "estimated_diameter_max": 234.436392583
        }
    },
    "is_potentially_hazardous_asteroid": false,
    "close_approach_data": [
        {
            "close_approach_date": "2010-10-29",
            "close_approach_date_full": "2010-Oct-29 00:54",
            "epoch_date_close_approach": 1288313640000,
            "relative_velocity": {
                "kilometers_per_second": "11.4940811789",
                "kilometers_per_hour": "41378.6922438676",
                "miles_per_hour": "25711.1101889743"
            },
            "miss_distance": {
                "astronomical": "0.0507745832",
                "lunar": "19.7513128648",
                "kilometers": "7595769.496857784",
                "miles": "4719792.3056700592"
            },
            "orbiting_body": "Earth"
        }
    ],
    "orbital_data": {
        "orbit_id": "11",
        "orbit_determination_date": "2017-04-06 08:55:45",
        "first_observation_date": "2010-11-12",
        "last_observation_date": "2010-11-28",
        "data_arc_in_days": 16,
        "observations_used": 44,
        "orbit_uncertainty": "8",
        "minimum_orbit_intersection": ".0444032",
        "jupiter_tisserand_invariant": "3.885",
        "epoch_osculation": "2455515.5",
        "eccentricity": ".5107460635487786",
        "semi_major_axis": "1.805675559025598",
        "inclination": "7.972302680965646",
        "ascending_node_longitude": "55.0846947848608",
        "orbital_period": "886.2535877521451",
        "perihelion_distance": ".8834338752070333",
        "perihelion_argument": "291.8541256502106",
        "aphelion_distance": "2.727917242844162",
        "perihelion_time": "2455461.444741586953",
        "mean_anomaly": "21.95747729276238",
        "mean_motion": ".4062042794242315",
        "equinox": "J2000",
        "orbit_class": {
            "orbit_class_type": "APO",
            "orbit_class_description": "Near-Earth asteroid orbits which cross the Earth’s orbit similar to that of 1862 Apollo",
            "orbit_class_range": "a (semi-major axis) > 1.0 AU; q (perihelion) < 1.017 AU"
        }
    },
    "is_sentry_object": false
}